name,address,area,county,zip,phone,備用電話號碼
臺北市衛生局,臺北市信義區市府路1號1樓東南區,信義區,臺北市,11008,1999,02-27208889#7162
臺北市社區心理衛生中心,臺北市中正區金山南路1段5號,中正區,臺北市,10053,1999#8860,02-33936779#11
長庚醫療財團法人臺北長庚紀念醫院,臺北市松山區敦化北路199號,松山區,臺北市,10507,02-27135211,
博仁綜合醫院,臺北市松山區光復北路66-68號,松山區,臺北市,10560,02-25786677,
基督復臨安息日會醫療財團法人臺安醫院,臺北市松山區八德路2段424號,松山區,臺北市,10556,02-27718151#2692,
國軍松山總醫院附設民眾診療服務處,臺北市松山區健康路131號,松山區,臺北市,10581,02-27642151,
松山醫院,臺北市松山區南京東路5段324號,松山區,臺北市,10569,02-27616534,
培靈醫院,臺北市松山區八德路4段355號,松山區,臺北市,10565,02-27606116,
國泰醫療財團法人國泰綜合醫院,臺北市大安區仁愛路4段280號,大安區,臺北市,10630,02-27082121,
宏恩醫療財團法人宏恩綜合醫院,臺北市大安區仁愛路4段71巷1號,大安區,臺北市,10688,02-7713161#163,
中心診所醫療財團法人中心綜合醫院,臺北市大安區忠孝東路4段77號,大安區,臺北市,10691,02-27510221#3011,
臺北市立聯合醫院中興院區,臺北市大同區鄭州路145號,大同區,臺北市,10341,02-25523234#2102,
臺北市立聯合醫院松德院區,臺北市信義區松德路309號,信義區,臺北市,11080,02-27263141#2602,
臺北市立聯合醫院仁愛院區,臺北市大安區仁愛路4段10號,大安區,臺北市,10629,02-27093600#5245,
臺北市立聯合醫院和平院區,臺北市中正區中華路2段33號,中正區,臺北市,10065,02-23889595#8431,
臺北市立聯合醫院婦幼院區,臺北市中正區福州街12號,中正區,臺北市,10078,02-23916470,
臺北市立聯合醫院陽明院區,臺北市士林區雨聲街105號,士林區,臺北市,11146,02-28353456#6865,
臺北市立聯合醫院忠孝院區,臺北市南港區同德路87號,南港區,臺北市,11556,02-27861288#8762,
財團法人臺灣基督長老教會馬偕紀念社會事業基金會馬偕紀念醫院,臺北市中山區中山北路2段92號,中山區,臺北市,10449,02-25433535#3685,
中國醫藥大學附設醫院臺北分院,臺北市內湖區內湖路2段360號,內湖區,臺北市,11449,02-27919696,
財團法人康寧醫院,臺北市內湖區成功路5段420巷26號,內湖區,臺北市,11490,02-26345500#2357,
國防醫學院三軍總醫院,臺北市內湖區成功路2段325號,內湖區,臺北市,11490,02-87923311#26000,
新光醫療財團法人新光吳火獅紀念醫院,臺北市士林區文昌路95號,士林區,臺北市,11101,02-28332211#9460,
三軍總醫院北投分院,臺北市北投區新民路60號,北投區,臺北市,11243,02-28959808,
臺北市立關渡醫院,臺北市北投區知行路225巷12號,北投區,臺北市,11260,02-28587000#7151,
醫療財團法人辜公亮基金會和信治癌中心醫院,臺北市北投區立德路125號,北投區,臺北市,11259,02-28970011,
振興醫療財團法人振興醫院,臺北市北投區振興街45號,北投區,臺北市,11220,02-28264400#3536,
行政院國軍退除役官兵輔導委員會臺北榮民總醫院,臺北市北投區石牌路2段201號,北投區,臺北市,11217,02-28757010,
臺北醫學大學附設醫院,臺北市信義區吳興街252號,信義區,臺北市,11031,02-27372181#3666,
國立臺灣大學醫學院附設醫院,臺北市中正區中山南路7號、8號,中正區,臺北市,10002,02-23123456#62381,
財團法人臺灣省私立臺北仁濟院附設仁濟醫院,臺北市萬華區廣州街200號、243號,萬華區,臺北市,10853,02-23021133,
西園醫院,臺北市萬華區西園路2段270號,萬華區,臺北市,10864,02-23076968,
臺北市立萬芳醫院,臺北市文山區興隆路3段111號,文山區,臺北市,11696,02-29307930,
臺北市立聯合醫院附設精神科門診,臺北市中正區金山南路1段5號,中正區,臺北市,10053,02-33936779,
邱楠超診所,臺北市松山區延吉街20號,松山區,臺北市,10550,02-25702296,
啟誠聯合診所,臺北市大安區和平東路2段120號,大安區,臺北市,10663,02-23784380,
林青穀家庭醫學科診所,臺北市大安區大安路1段2-1號,大安區,臺北市,10697,02-27317557,
敦南心診所,臺北市大安區樂利路109號,大安區,臺北市,10679,02-27331995,
杏語心靈診所,臺北市大安區敦化南路1段200號1206室,大安區,臺北市,10679,02-27211526,
尹書田醫療財團法人書田泌尿科眼科診所,臺北市大安區建國南路2段276號,大安區,臺北市,10662,02-23690211,
光能身心診所,臺北市大安區忠孝東路4段15號8樓,大安區,臺北市,10691,02-27214322,
康和診所,臺北市大安區忠孝東路4段216巷11弄8號,大安區,臺北市,10686,02-27523234,
昱捷診所,臺北市大安區信義路3段202號9樓之1,大安區,臺北市,10686,02-27002709,
莊凱迪診所,臺北市大安區羅斯福路3段149號3樓之1,大安區,臺北市,10686,02-23697926,
曾醫師診所,臺北市大安區延吉街233巷9號5樓,大安區,臺北市,10696,02-27092633,
台灣電力股份有限公司台電聯合診所,臺北市大安區和平東路1段76號,大安區,臺北市,10643,02-23653171,
悟安精神科診所,臺北市大安區泰順街16巷10-2號,大安區,臺北市,10648,02-23633690,
春寧診所,臺北市大同區長安西路35號2樓,大同區,臺北市,10351,02-25492000,
北安聯合診所,臺北市中山區北安路 569-3號,中山區,臺北市,10463,02-25337777,
黃偉俐診所,臺北市中山區天津街37號2樓,中山區,臺北市,10441,02-25114123,
黃雅芬兒童心智診所,臺北市中山區南京西路5之1號12樓之1,中山區,臺北市,10441,02-25675690,
慶生診所,臺北市中山區林森北路561號2樓之7,中山區,臺北市,10441,02-25983456,
會心診所,臺北市中山區雙城街19巷8號4樓之5,中山區,臺北市,10441,0952-660966,
澄心診所,臺北市中山區中山北路2段82號2樓,中山區,臺北市,10448,02-25230480,
國泰醫療財團法人內湖國泰診所,臺北市內湖區瑞光路506號,內湖區,臺北市,11492,02-87972121,
夏一新精神科診所,臺北市內湖區成功路3段143號4樓,內湖區,臺北市,11460,02-87928213,
天晴診所,臺北市士林區中山北路六段292號,士林區,臺北市,11152,02-28355329,
聿康診所,臺北市信義區忠孝東路五段250號2樓,信義區,臺北市,11060,02-87867727,
松德精神科診所,臺北市信義區松德路108號,信義區,臺北市,11075,02-87894477,
佑泉診所,臺北市信義區忠孝東路5段508-4號,信義區,臺北市,11083,02-27595512,
孫睿亮醫師診所,臺北市中正區金山南路1段121號,中正區,臺北市,10056,02-23926233,
萬華身心精神科診所,臺北市萬華區和平西路3段149號,萬華區,臺北市,10855,02-23088878,
欣美精神科診所,臺北市大安區復興南路1段342號2樓之5,大安區,臺北市,10855,02-23253218,
中崙聯合診所,臺北市中山區八德路2段303號,中山區,臺北市,10492,02-27711501,
新北市衛生局,新北市板橋區英士路192-1號,板橋區,新北市,22006,02-22577155,
新北市社區心理衛生中心,新北市板橋區英士路192-1號,板橋區,新北市,22006,02-22572623,
醫療財團法人徐元智先生醫藥基金會亞東紀念醫院,新北市板橋區南雅南路2段21號,板橋區,新北市,22060,02-89667000,
財團法人天主教耕莘醫院,新北市新店區中正路362號,新店區,新北市,23148,02-22193391,
財團法人臺灣省私立臺北仁濟院附設仁濟療養院新莊分院,新北市新莊區瓊林路100巷27號,新莊區,新北市,24263,02-22015222,
衛生福利部臺北醫院,新北市新莊區思源路127號,新莊區,新北市,24213,02-22765566,
財團法人恩主公醫院,新北市三峽區復興路399號,三峽區,新北市,23702,02-26723456,
財團法人基督長老教會馬偕紀念醫院淡水分院,新北市淡水區民生路45號,淡水區,新北市,25160,02-28094661,
國泰醫療財團法人汐止國泰綜合醫院,新北市汐止區建成路59巷2號,汐止區,新北市,22174,02-26482121,
衛生福利部八里療養院,新北市八里區華富山33號,八里區,新北市,24936,02-26101660,
財團法人天主教耕莘醫院永和分院,新北市永和區中興街80號,永和區,新北市,23445,02-29286060,
衛生福利部雙和醫院,新北市中和區中正路291號,中和區,新北市,23561,02-22490088,
宏慈療養院,新北市新店區安泰路157號,新店區,新北市,23157,02-22151177,
宏濟神經精神科醫院,新北市新店區安忠路57巷5號,新店區,新北市,23154,02-22118899,
財團法人佛教慈濟綜合醫院臺北分院,新北市新店區建國路289號,新店區,新北市,23142,02-66289779,
衛生福利部樂生療養院,新北市新莊區中正路794號,新莊區,新北市,24257,02-82006600,
名恩療養院,新北市鶯歌區鶯桃路2段62號,鶯歌區,新北市,23943,02-26701092,
靜養醫院,新北市三峽區中山路459巷92號,三峽區,新北市,23741,02-26710427,
長青醫院,新北市淡水區糞箕湖1-5號,淡水區,新北市,25163,02-86260561,
北新醫院,新北市淡水區忠寮里演戲埔腳1-2號,淡水區,新北市,25150,02-26209199,
泓安醫院,新北市淡水區下圭柔山91巷2號,淡水區,新北市,25172,02-26232681,
臺安醫院,新北市三芝區興華村楓子林路42-5號,三芝區,新北市,25243,02-26371600,
新北市立聯合醫院(三重院區),新北市三重區新北大道一段3號,三重區,新北市,24141,02-29829111,
新北市立聯合醫院(板橋院區),新北市板橋區英士路198號,板橋區,新北市,22051,02-22575151,
行政院國軍退除役官兵輔導委員會台北榮譽國民之家醫務室,新北市三峽區白雞路127號,三峽區,新北市,23742,02-26731201,
衛生福利部八里療養院附設土城門診部,新北市土城區青雲路6號,土城區,新北市,23656,02-22745250,
樂為診所,新北市板橋區漢生西路68號,板橋區,新北市,22051,02-22518068,
楊思亮診所,新北市板橋區文化路2段4號,板橋區,新北市,22041,02-82528779,
楊孟達身心精神科診所,新北市板橋區文化路1段275號,板橋區,新北市,22050,02-22555222,
家樺聯合診所,新北市板橋區雙十路2段42號,板橋區,新北市,22043,02-82523000,
心康診所,新北市板橋區中山路2段34號,板橋區,新北市,22067,02-29626888,
陳信任精神科診所,新北市三重區正義北路320號,三重區,新北市,24146,02-29871868,
美麗心成人兒童精神科診所,新北市三重區正義北路210號,三重區,新北市,24147,02-29886773,
明心診所,新北市永和區中正路748號,永和區,新北市,23448,02-29286111,
心晴診所,新北市永和區竹林路27號,永和區,新北市,23441,02-89250802,
欣康診所,新北市中和區員山路288號,中和區,新北市,23547,02-22264688,
樂活精神科診所,新北市中和區安樂路25號,中和區,新北市,23582,02-29463655,
寧靜海診所,新北市中和區永貞路239巷20號,中和區,新北市,23574,02-29212321,
賽斯身心靈診所,新北市新店區中央七街26號2樓,新店區,新北市,23150,02-22180875,
楊聰才診所,新北市新店區中興路2段239號2樓,新店區,新北市,23146,02-29181299,
永悅診所,新北市新莊區民安西路6號,新莊區,新北市,24267,02-22048782,
陳炯鳴精神科診所,新北市新莊區新泰路193號,新莊區,新北市,24242,02-22779773,
謝宏杰身心精神科診所,新北市汐止區新台五路1段232號,汐止區,新北市,22175,02-86916588,
悠活精神科診所,新北市土城區學府路1段158號,土城區,新北市,23657,02-22748877,
福和身心診所,新北市永和區福和路240號,永和區,新北市,23450,02-29291868,
壬康精神科診所,新北市蘆洲區中正路114號,蘆洲區,新北市,24758,02-82825885,
基隆市衛生局,基隆市信義區信二路266號,信義區,基隆市,20147,02-24230181,
基隆市社區心理衛生中心,基隆市安樂區安樂路2段164號5樓,安樂區,基隆市,20448,02-24300193~5,
三軍總醫院附設基隆民眾診療服務處,基隆市中正區正榮街100號,中正區,基隆市,20244,02-24633330,
長庚醫療財團法人基隆長庚紀念醫院,基隆市安樂區麥金路222號,安樂區,基隆市,20401,02-24313131,
南光神經精神科醫院,基隆市安樂區基金一路91號,安樂區,基隆市,20445,02-24310023,
衛生福利部基隆醫院,基隆市信義區信二路268號,信義區,基隆市,20147,02-24292525,
基隆市維德醫院,基隆市調和街210號,調和街,基隆市,20249,02-24696688,
宜蘭縣衛生局,宜蘭縣宜蘭市女中路2段287號,宜蘭市,宜蘭縣,26051,03-9322634　,
宜蘭縣社區心理衛生中心,宜蘭縣宜蘭市女中路2段287號,宜蘭市,宜蘭縣,26051,03-9367885,
國立陽明大學附設醫院,宜蘭縣宜蘭市新民路152號,宜蘭市,宜蘭縣,26042,03-9325192,
財團法人羅許基金會羅東博愛醫院,宜蘭縣羅東鎮南昌街83號,羅東鎮,宜蘭縣,26546,03-9543131,
財團法人天主教靈醫會羅東聖母醫院,宜蘭縣羅東鎮中正南路160號,羅東鎮,宜蘭縣,26546,03-9544106,
臺北榮民總醫院蘇澳分院,宜蘭縣蘇澳鎮蘇濱路1段301號,蘇澳鎮,宜蘭縣,27047,03-9905106,
海天醫療社團法人海天醫院,宜蘭縣壯圍鄉古亭村古亭路23-9號,壯圍鄉,宜蘭縣,26342,03-9308010,
宜蘭普門醫療財團法人普門醫院,宜蘭縣員山鄉深溝村尚深路91號,員山鄉,宜蘭縣,26443,03-9220292,
臺北榮民總醫院員山分院,宜蘭縣員山鄉榮光路386號,員山鄉,宜蘭縣,26444,03-9222141,
財團法人蘭陽仁愛醫院,宜蘭縣宜蘭市中山路2段260號,宜蘭市,宜蘭縣,26047,03-9355366,
臺北榮民總醫院員山分院附設門診部,宜蘭縣宜蘭市林森路1號,宜蘭市,宜蘭縣,26058,03-9373939,
光中身心診所,宜蘭縣宜蘭市光復路30號2樓,宜蘭市,宜蘭縣,26043,03-9312300,
平和身心診所,宜蘭縣羅東鎮光榮路409號3樓,羅東鎮,宜蘭縣,26561,03-9559960,
金門縣衛生局,金門縣金湖鎮復興路1-12號,金湖鎮,金門縣,89142,082-330697,082-333607
金門縣社區心理衛生中心,金門縣金湖鎮中正路1-1號2樓,金湖鎮,金門縣,89142,082-337885,
衛生福利部金門醫院,金門縣金湖鎮復興路2號,金湖鎮,金門縣,89148,082-332546,
連江縣衛生局,連江縣南竿鄉復興村216號,南竿鄉,連江縣,20941,083-622095,
連江縣社區心理衛生中心,連江縣南竿鄉復興村216號,南竿鄉,連江縣,20941,083-626643,
連江縣立醫院,連江縣南竿鄉復興村217號,南竿鄉,連江縣,20941,083-623991,
桃園縣衛生局,桃園縣桃園市縣府路55號,桃園市,桃園縣,33053,03-3340935,
桃園縣社區心理衛生中心,桃園縣桃園市縣府路55號,桃園市,桃園縣,33053,03-3325880,
臺北榮民總醫院桃園分院,桃園縣桃園市成功路3段100號,桃園市,桃園縣,33052,03-3384889,
衛生福利部桃園療養院,桃園縣桃園市龍壽街71號,桃園市,桃園縣,33058,03-3698553,
衛生福利部桃園醫院,桃園縣桃園市中山路1492號,桃園市,桃園縣,33004,03-3699721,
財團法人天主教聖保祿修女會醫院,桃園縣桃園市建新街123號,桃園市,桃園縣,33069,03-3613141,
敏盛綜合醫院,桃園縣桃園市經國路168號,桃園市,桃園縣,33044,03-3179599,
居善醫院,桃園縣大園鄉南港村大觀路910號,大園鄉,桃園縣,33742,03-3866511,
長庚醫療財團法人桃園長庚紀念醫院,桃園縣龜山鄉舊路村頂湖路123號,龜山鄉,桃園縣,33378,03-3196200,
長庚醫療財團法人林口長庚紀念醫院,桃園縣龜山鄉公西村復興街5號,龜山鄉,桃園縣,33305,03-3281200,
國軍桃園總醫院附設民眾診療服務處,桃園縣龍潭鄉中興路168號,龍潭鄉,桃園縣,32551,03-4897190,
壢新醫院,桃園縣平鎮市廣泰路77號,平鎮市,桃園縣,32449,03-4941234,
心寧診所,桃園縣桃園市中山路1080號,桃園市,桃園縣,33072,03-3920522,
全新精神專科診所,桃園縣桃園市春日路1311號,桃園市,桃園縣,33051,03-3586944,
安心診所,桃園縣桃園市中正路633號,桃園市,桃園縣,33047,03-3162020,
迎旭診所,桃園縣中壢市中山路38號,中壢市,桃園縣,32041,03-4277126,
陳炯旭診所,桃園縣中壢市九和五街7號,中壢市,桃園縣,32085,03-2805285,
新楊梅診所,桃園縣楊梅市環東路476號1、2樓,楊梅市,桃園縣,32645,03-4856530,
楊延壽診所,桃園縣龍潭鄉中正路298號,龍潭鄉,桃園縣,32557,03-4899242,
新竹縣衛生局,新竹縣竹北市光明七街1號,竹北市,新竹縣,30295,03-5518160,
新竹縣社區心理衛生中心,新竹縣竹北市光明七街1號,竹北市,新竹縣,30295,03-6567138,
培靈關西醫院,新竹縣關西鎮新富里11鄰石門33-1號,關西鎮,新竹縣,30647,03-5476399,
行政院國軍退除役官兵輔導委員會竹東榮民醫院,新竹縣竹東鎮中豐路1段81號,竹東鎮,新竹縣,31064,03-5962134,
國立臺灣大學醫學院附設醫院竹東分院,新竹縣竹東鎮至善路52號,竹東鎮,新竹縣,31064,03-5943248,
東元綜合醫院,新竹縣竹北市縣政二路69號,竹北市,新竹縣,30268,03-5527000,
天主教仁慈醫療財團法人仁慈醫院,新竹縣湖口鄉忠孝路29號,湖口鄉,新竹縣,30342,03-5993500,
陽光精神科診所,新竹縣竹東鎮東榮路2號,竹東鎮,新竹縣,31064,03-5942371,
台齡身心診所,新竹縣竹北市文信路376號,竹北市,新竹縣,30259,03-5586857,
安立身心診所,新竹縣竹北市莊敬北路82號,竹北市,新竹縣,30264,03-6577622,
六竹診所,新竹縣竹北市嘉豐二街1段48號,竹北市,新竹縣,30264,03-5505550,
新竹市衛生局,新竹市東區建功二路20巷1號,東區,新竹市,30070,03-5723515#233,
新竹市社區心理衛生中心,新竹市北區集賢街3號,北區,新竹市,30045,03-5234647,
南門綜合醫院,新竹市東區林森路20號,東區,新竹市,30042,03-5261122,
國泰醫療財團法人新竹國泰綜合醫院,新竹市東區中華路2段678號,東區,新竹市,30060,03-5278999,
財團法人馬偕紀念醫院新竹分院,新竹市東區光復路2段690號,東區,新竹市,30071,03-6119595,
新中興醫院,新竹市北區興南街43號,北區,新竹市,30045,03-5213163,
國軍新竹地區醫院附設民眾診療服務處,新竹市北區武陵路3號,北區,新竹市,30054,03-5348181,
行政院衛生署新竹醫院,新竹市北區經國路1段442巷25號,北區,新竹市,30059,03-5326151,
財團法人台灣省私立桃園仁愛之家附設新竹新生醫院,新竹市北區西門街120號,北區,新竹市,30045,03-5223637,
平和醫療社團法人和平醫院,新竹市北區和平路86-1號,北區,新竹市,30048,03-5260151,
林正修診所,新竹市東區新光路38號,東區,新竹市,30069,03-5166746,
能清安欣診所,新竹市東區中央路214號,東區,新竹市,30041,03-5357600,
苗栗縣衛生局,苗栗縣苗栗市國福路6號,苗栗市,苗栗縣,36059,037-336729,
苗栗縣社區心理衛生中心,苗栗縣苗栗市國福路6號,苗栗市,苗栗縣,36059,037-332565,037-332621 
大千綜合醫院,苗栗縣苗栗市恭敬路36號,苗栗市,苗栗縣,36052,037-357125,
大千綜合醫院南勢分院,苗栗縣苗栗市南勢里南勢52號,苗栗市,苗栗縣,36063,037-369936,
衛生福利部苗栗醫院,苗栗縣苗栗市為公路747號,苗栗市,苗栗縣,36054,037-261920,
弘大醫院,苗栗縣苗栗市新東街125號,苗栗市,苗栗縣,36060,037-361188,
李綜合醫療社團法人苑裡李綜合醫院,苗栗縣苑裡鎮和平路168號,苑裡鎮,苗栗縣,35845,037-862387,
財團法人為恭紀念醫院,苗栗縣頭份鎮信義路128號,頭份鎮,苗栗縣,35159,037-676811,
財團法人為恭紀念醫院東興院區,苗栗縣頭份鎮水源路417巷13號,頭份鎮,苗栗縣,35148,037-685569,
崇仁醫院,苗栗縣頭份鎮東興路110號,頭份鎮,苗栗縣,35142,037-663185,
重光醫院,苗栗縣頭份鎮中華路1039號,頭份鎮,苗栗縣,35159,037-663030,
大順醫院,苗栗縣大湖鄉中正路48-5號,大湖鄉,苗栗縣,36441,037-997666,
周博治婦產科,苗栗縣苗栗市中正路403號,苗栗市,苗栗縣,36042,037-332288,
中油台探診所,苗栗縣苗栗市中正路140號,苗栗市,苗栗縣,36043,037-261312,
益康診所,苗栗縣苗栗市中正路739號,苗栗市,苗栗縣,36050,037-378566,
天慈身心科診所,苗栗縣苑裡鎮和平路165號,苑裡鎮,苗栗縣,35845,037-865025,
宏仁診所,苗栗縣竹南鎮守法街2-13號,竹南鎮,苗栗縣,35042,037-241119,
承美身心科診所,苗栗縣頭份鎮信東路76號,頭份鎮,苗栗縣,35153,037-683748,
後龍診所,苗栗縣後龍鎮大庄里中山路123號,後龍鎮,苗栗縣,35645,037-773088,
通霄診所,苗栗縣通霄鎮中正路20-1號,通霄鎮,苗栗縣,35741,037-759889,
暘明診所,苗栗縣苑裡鎮苑南里1鄰新興路78號1樓,苑裡鎮,苗栗縣,35862,037-856581,
臺中市衛生局,臺中市豐原區中興路136號,豐原區,臺中市,42053,04-25265934,
臺中市社區心理衛生中心,臺中市豐原區瑞安街143號,豐原區,臺中市,42041,04-25155148~50,
衛生福利部豐原醫院,臺中市豐原區安康路100號,豐原區,臺中市,42055,04-25271180,
李綜合醫療社團法人大甲李綜合醫院,臺中市大甲區八德街2號,大甲區,臺中市,43748,04-26862288,
清濱醫院,臺中市清水區港埠路4段195號,清水區,臺中市,43647,04-26283995,
陽光精神科醫院,臺中市清水區東山路68之1號,清水區,臺中市,43641,04-26202949,
光田醫療社團法人光田綜合醫院,臺中市沙鹿區沙田路117號,沙鹿區,臺中市,43303,04-26625111,
童綜合醫療社團法人童綜合醫院,臺中市梧棲區中棲路1段699號,梧棲區,臺中市,43503,04-26626161,
明德醫院,臺中市梧棲區仁美街33巷50號,梧棲區,臺中市,43543,04-26579595,
財團法人佛教慈濟綜合醫院臺中分院,臺中市潭子區豐興路1段66號,潭子區,臺中市,42743,04-36060666,
清海醫院,臺中市石岡區金星里石岡街下坑巷41-2號,石岡區,臺中市,42264,04-25723332,
國軍臺中總醫院附設民眾診療服務處,臺中市太平區中山路2段348號,太平區,臺中市,41168,04-23934285,
賢德醫院,臺中市太平區宜昌路420號,太平區,臺中市,41175,04-23939995,
仁愛醫療財團法人大里仁愛醫院,臺中市大里區東榮路483號,大里區,臺中市,41265,04-24819900,
澄清綜合醫院,臺中市中區平等街139號,中區,臺中市,40045,04-24632000,
財團法人臺灣省私立臺中仁愛之家附設靜和醫院,臺中市西區吉龍里南屯路1段158號,西區,臺中市,40347,04-23711129,
衛生福利部臺中醫院,臺中市西區三民路1段199號,西區,臺中市,40343,04-22294411,
宏恩醫院龍安分院,臺中市南區德富路145巷2號,南區,臺中市,40256,04-37017188,
中山醫學大學附設醫院,臺中市南區建國北路1段110號,南區,臺中市,40201,04-24739595,
中國醫藥大學附設醫院,臺中市北區育德路2號,北區,臺中市,40447,04-22052121,
維新醫療社團法人臺中維新醫院,臺中市北區育德路185號,北區,臺中市,40442,04-22038585,
國軍臺中總醫院附設民眾診療服務處中清分院,臺中市北區忠明路500號,北區,臺中市,40466,04-22037320,
行政院國軍退除役官兵輔導委員會臺中榮民總醫院,臺中市西屯區臺中港路3段160號,西屯區,臺中市,40705,04-23592525,
澄清綜合醫院中港分院,臺中市西屯區台灣大道四段966號,西屯區,臺中市,40764,04-24632250,
林新醫療社團法人林新醫院,臺中市南屯區惠中路3段36號,南屯區,臺中市,40867,04-22586688,
世淋診所,臺中市豐原區中正路497號,豐原區,臺中市,42056,04-25207017,
林淇祥診所,臺中市豐原區圓環東路455號,豐原區,臺中市,42045,04-25289595,
慈祐聯合診所,臺中市烏日區中山路1段548號,烏日區,臺中市,41444,04-23368633,
群享診所,臺中市大里區中投西路3段215號,大里區,臺中市,41259,04-24181155,
王志中診所,臺中市大里區東榮路338號,大里區,臺中市,41265,04-24823855,
詹東霖心身診所,臺中市中區民權路122號,中區,臺中市,40041,04-22256362,
明功堂精神科診所,臺中市東區自由路3段276號,東區,臺中市,40141,04-22120083,
劉昭賢精神科診所,臺中市西區向上路1段360號,西區,臺中市,40361,04-23223123,
紓情診所,臺中市西區美村路1段743號2樓,西區,臺中市,40345,04-23723152,
游文治精神科診所,臺中市西區美村路1段223號,西區,臺中市,40351,04-23029995,
家康診所,臺中市南區文心南路923號,南區,臺中市,40256,04-22630818,
王昌平神經精神科診所,臺中市南區復興路3段471號,南區,臺中市,40247,04-22229752,
劉騰光心身診所,臺中市北區進化路635號,北區,臺中市,40463,04-22371903,
黃淑琦心身診所,臺中市北區學士路83號4樓,北區,臺中市,40458,04-22083306,
呂健弘精神科診所,臺中市西屯區文心路3段412號,西屯區,臺中市,40753,04-23115249,
開心房身心診所,臺中市西屯區上石路2號2樓,西屯區,臺中市,40757,04-27003342,
昕晴診所,臺中市西屯區青海路2段246-1號,西屯區,臺中市,40745,04-27085855,
全新生活診所,臺中市西屯區何仁里寧夏路199號,西屯區,臺中市,40750,04-23156988,
圓情居身心靈診所,臺中市南屯區大墩11街342號 ,南屯區,臺中市,40861,04-24723060,
心身美診所,臺中市南屯區大聖街334號,南屯區,臺中市,40848,04-23100050,
康誠診所,臺中市南屯區大墩路705號2樓,南屯區,臺中市,40848,04-23103968,
元亨診所,臺中市北屯區松竹路2段303號,北屯區,臺中市,40669,04-22413959,
尚義診所,臺中市北屯區北屯路299之1號,北屯區,臺中市,40645,04 22355155,
佳佑診所,臺中市北屯區崇德路2段425號,北屯區,臺中市,40674,04-22474309,
望晴診所,臺中市后里區大圳路629號,后里區,臺中市,42154,04-25585284,
展新診所,臺中市西區五權西路1段273號1樓,西區,臺中市,40347,04-23780900,
楊紹民診所,臺中市西屯區政和路152號1、2樓,西屯區,臺中市,40757,04-22582056,
明燈診所,臺中市南屯區向上路2段326號1樓,南屯區,臺中市,40867,04-23810501,
湯元浩診所,臺中市太平區樹孝路33號1樓,太平區,臺中市,41169,04-23939203,
彰化縣衛生局,彰化縣彰化市中山路2段162號,彰化市,彰化縣,50049,04-7115141,
彰化縣社區心理衛生中心,彰化縣彰化市中山路2段162號2樓,彰化市,彰化縣,50049,04-7127839,
彰化縣自殺防治中心,彰化縣彰化市中山路2段162號2樓,彰化市,彰化縣,50049,04-7123369,
彰化基督教醫療財團法人彰化基督教醫院,彰化縣彰化市南校街135號,彰化市,彰化縣,50006,04-7238595,
秀傳醫療社團法人秀傳紀念醫院,彰化縣彰化市南瑤里中山路1段542號,彰化市,彰化縣,50008,04-7256166,
明德醫院,彰化縣彰化市龍山里中山路2段874巷33號,彰化市,彰化縣,50042,04-7223138,
彰化基督教醫療財團法人鹿東基督教醫院,彰化縣鹿港鎮東崎里鹿東路2段888號,鹿港鎮,彰化縣,50550,04-7789595,
秀傳醫療財團法人彰濱秀傳紀念醫院,彰化縣鹿港鎮鹿工路6號,鹿港鎮,彰化縣,50544,04-7813888,
彰化基督教醫療財團法人鹿港基督教醫院,彰化縣鹿港鎮中正路480號,鹿港鎮,彰化縣,50544,04-7779595,
員生醫院,彰化縣員林鎮莒光路359號,員林鎮,彰化縣,51052,04-8339595,
敦仁醫院,彰化縣員林鎮員水路1段102巷74弄99號,員林鎮,彰化縣,51061,04-7071727,
彰化基督教醫療財團法人二林基督教醫院,彰化縣二林鎮大成路1段558號,二林鎮,彰化縣,52665,04-8952031,
衛生福利部彰化醫院,彰化縣埔心鄉舊館村中正路2段80號,埔心鄉,彰化縣,51341,04-8298686,
吳澄第神經科精神科診所,彰化縣彰化市成功路345號,彰化市,彰化縣,50045,04-7226814,
吳潮聰精神科診所,彰化縣彰化市長發街3號,彰化市,彰化縣,50066,04-7239121,
陳建達診所,彰化縣北斗鎮新政里中正路153號,北斗鎮,彰化縣,52142,04-8877228,
高杏診所,彰化縣員林鎮中正路226號,員林鎮,彰化縣,51045,04-8347798,
王中民神經科精神科診所,彰化縣員林鎮中山路1段838號,員林鎮,彰化縣,51041,04-8323553,
沈祿從診所,彰化縣花壇鄉中正路220號,花壇鄉,彰化縣,50343,04-7868238,
李光耀診所,彰化縣田尾鄉溪畔村中山路2段407號,田尾鄉,彰化縣,52242,04-8221899,
南投縣衛生局,南投縣南投市復興路6號,南投市,南投縣,54062,049-2222473 ,
南投縣社區心理衛生中心,南投縣南投市復興路6號,南投市,南投縣,54062,049-2209595,
衛生福利部南投醫院,南投縣南投市復興路478號,南投市,南投縣,54062,049-2231150,
臺中榮民總醫院埔里分院,南投縣埔里鎮蜈蚣里榮光路1號,埔里鎮,南投縣,54552,049-2998911,
埔基醫療財團法人埔里基督教醫院,南投縣埔里鎮鐵山路1號,埔里鎮,南投縣,54546,049-2912151,
衛生福利部草屯療養院,南投縣草屯鎮玉屏路161號,草屯鎮,南投縣,54249,049-2550800,
惠良精神科診所,南投縣南投市民族路167號,南投市,南投縣,54058,0926-105977,
惠元診所,南投縣竹山鎮桂林里中正巷27-99號,竹山鎮,南投縣,55752,049-2651932,
惠承診所,南投縣埔里鎮和平東路417號,埔里鎮,南投縣,54554,049-2420453,
雲林縣衛生局,雲林縣斗六市府文路34號,斗六市,雲林縣,64054,05-5373488,
雲林縣社區心理衛生中心,雲林縣斗六市府文路34號,斗六市,雲林縣,64054,05-5370885,
信安醫療社團法人信安醫院,雲林縣斗六市瓦厝路159號,斗六市,雲林縣,64067,05-5223788,
國立成功大學醫學院附設醫院斗六分院,雲林縣斗六市莊敬路345號,斗六市,雲林縣,64043,05-5332121,
國立臺灣大學醫學院附設醫院雲林分院,雲林縣斗六市雲林路2段579號,斗六市,雲林縣,64041,05-5323911,
財團法人天主教若瑟醫院,雲林縣虎尾鎮新生路74號,虎尾鎮,雲林縣,63241,05-6337333,
彰化基督教醫療財團法人雲林基督教醫院,雲林縣西螺鎮新豐里市場南路375號,西螺鎮,雲林縣,64866,05-5871111,
中國醫藥大學北港附設醫院,雲林縣北港鎮新德路123號,北港鎮,雲林縣,65152,05-7837901,
佛教慈濟綜合醫院斗六門診中心,雲林縣斗六市雲林路2段248號 ,斗六市,雲林縣,65152,05-5372000,
長庚醫療財團法人雲林長庚紀念醫院,雲林縣麥寮鄉三盛村工業路707號,麥寮鄉,雲林縣,63862,05-6915151,
雲萱診所,雲林縣斗六市雲林路2段333號,斗六市,雲林縣,64041,05-5371688,
廖寶全診所,雲林縣虎尾鎮東明路182號,虎尾鎮,雲林縣,63243,05-6322584,
林文博診所,雲林縣斗六市仁愛里中華路232號,斗六市,雲林縣,64045,05-5326350,
嘉義縣衛生局,嘉義縣太保市祥和二路東段3號,太保市,嘉義縣,61249,05-3620600,
嘉義縣社區心理衛生中心,嘉義縣太保市祥和二路東段3號,太保市,嘉義縣,61249,05-3621150,
臺中榮民總醫院灣橋分院,嘉義縣竹崎鄉灣橋村石麻園38號,竹崎鄉,嘉義縣,60441,05-2791072,
衛生福利部朴子醫院,嘉義縣朴子市永和里42-50號,朴子市,嘉義縣,61347,05-3790600,
長庚醫療財團法人嘉義長庚紀念醫院,嘉義縣朴子市仁和里嘉朴路西段6號,朴子市,嘉義縣,61363,05-3621000,
佛教慈濟醫療財團法人大林慈濟醫院,嘉義縣大林鎮平林里民生路2號,大林鎮,嘉義縣,62247,05-2648000,
嘉義市衛生局,嘉義市西區德明路1號,西區,嘉義市,60097,05-2338042,
嘉義市社區心理衛生中心,嘉義市西區德明路1號,西區,嘉義市,60097,05-2328177,
陽明醫院,嘉義市東區吳鳳北路252號,東區,嘉義市,60045,05-2252000,
戴德森醫療財團法人嘉義基督教醫院,嘉義市東區中庄里忠孝路539號,東區,嘉義市,60002,05-2765041,
天主教中華聖母修女會醫療財團法人天主教聖馬爾定醫院,嘉義市東區短竹里大雅路2段565號,東區,嘉義市,60069,05-2756000,
臺中榮民總醫院嘉義分院,嘉義市西區劉厝里世賢路2段600號,西區,嘉義市,60090,05-2359630,
衛生福利部嘉義醫院,嘉義市西區北港路312號,西區,嘉義市,60096,05-2319090,
黎山診所,嘉義市東區大雅路2段356號,東區,嘉義市,60076,05-2769524,
新仁友診所,嘉義市東區文化路242號,東區,嘉義市,60044,05-2788595,
懷恩診所,嘉義市東區興中街137號,東區,嘉義市,60047,05-2277711,
郭育祥診所,嘉義市西區博愛路2段240號,西區,嘉義市,60059,05-2338855,
太和診所,嘉義市西區新榮路75號,西區,嘉義市,60054,05-2222856,
方克毅神經精神科診所,嘉義市西區長榮街286號,西區,嘉義市,60048,05-2222371,
周裕軒身心醫學診所,嘉義市東區民樂街141號,東區,嘉義市,60050,05-2229823,
臺南市衛生局(林森),臺南市東區林森路1段418號,東區,臺南市,70151,06-2679751#160~180,
臺南市衛生局(東興),臺南市新營區東興路163號,新營區,臺南市,73064,06-6357716#160~179,
臺南市社區心理衛生中心(林森),臺南市東區林森路1段418號,東區,臺南市,70151,06-3352982,
臺南市社區心理衛生中心(東興),臺南市新營區東興路163號,新營區,臺南市,73064,06-6377232,
衛生福利部嘉南療養院,臺南市仁德區中山路870巷80號,仁德區,臺南市,71742,06-2795019,
國立成功大學醫學院附設醫院,臺南市北區勝利路138號,北區,臺南市,70403,06-2353535,
臺南市立醫院,臺南市東區崇德路670號,東區,臺南市,70173,06-2609926,
衛生福利部臺南醫院,臺南市中西區中山路125號,中西區,臺南市,70043,06-2200055,
高雄榮民總醫院臺南分院,臺南市永康區復興路427號,永康區,臺南市,71051,06-3125101,
奇美醫療財團法人奇美醫院台南分院,臺南市南區樹林街2段442號,南區,臺南市,70246,06-2228116,
奇美醫療財團法人柳營奇美醫院,臺南市柳營區太康村201號,柳營區,臺南市,73657,06-6226999,
奇美醫療財團法人奇美醫院,臺南市永康區中華路901號,永康區,臺南市,71004,06-2812811,
郭綜合醫院,臺南市中西區民生路2段22號,中西區,臺南市,70054,06-2221111,
衛生福利部新營醫院,臺南市新營區信義街73號,新營區,臺南市,73042,06-6351131,
臺灣基督長老教會新樓醫療財團法人臺南新樓醫院,臺南市東區東門路1段57號,東區,臺南市,70142,06-2748316,
臺灣基督長老教會新樓醫療財團法人麻豆新樓醫院,臺南市麻豆區小埤里苓子林20號,麻豆區,臺南市,72152,06-5702228,
財團法人臺灣省私立臺南仁愛之家附設精神療養院,臺南市新化區中山路20號,新化區,臺南市,71243,06-5902336,
衛生福利部臺南醫院新化分院,臺南市新化區那拔里牧場72號,新化區,臺南市,71246,06-5911929,
臺南市立安南醫院-委託中國醫藥大學興建經營,臺南市安南區州南里 12 鄰長和路2段 66 號,安南區,臺南市,70965,06-3553111,
陳俊升精神科診所,臺南市新營區三民路76-8、9號,新營區,臺南市,73049,06-6335025,
晴光診所,臺南市善化區大成路202號1樓,善化區,臺南市,74169,06-5856629,
心寬診所,臺南市永康區中華路199號1樓,永康區,臺南市,71084,06-3131212,
麥田身心診所,臺南市永康區復國一路365號1-2樓,永康區,臺南市,71085,06-2311229,
胡崇元活泉診所,臺南市東區崇德路2-1號,東區,臺南市,70161,06-2681600,
春暉精神科診所,臺南市東區長榮路2段43號,東區,臺南市,70143,06-2373888,
王盈彬精神科診所,臺南市東區崇善路406號1樓,東區,臺南市,70169,06-2600661,
心樂活診所,臺南市東區凱旋路39號,東區,臺南市,70153,06-2383636,
蕭文勝診所,臺南市東區東門路2段205號,東區,臺南市,70164,06-2755088,
蔡明輝診所,臺南市東區崇學路176號,東區,臺南市,70156,06-3369595,
欣悅診所,臺南市南區夏林路101號1樓,南區,臺南市,70247,06-2283065,
翁桂芳精神科診所,臺南市中西區民權路1段14號,中西區,臺南市,70044,06-2217070,
韓內兒科診所,臺南市中西區民權路2段299號,中西區,臺南市,70042,06-2222303,
殷建智精神科診所,臺南市北區公園北路152號2樓之1,北區,臺南市,70048,06-2810008,
林日光診所,臺南市北區長榮路4段152號,北區,臺南市,70463,06-2376506,
許森彥精神科診所,臺南市北區育德路466號1-2樓,北區,臺南市,70465,06-2513283,
羅信宜精神科診所,臺南市北區長榮路4段141號1樓,北區,臺南市,70463,06-2002268,
吳吉得診所,臺南市安南區安和路5段280號,安南區,臺南市,70959,06-2553342,
安平診所,臺南市安平區安平路23號,安平區,臺南市,70850,06-2267939,
自在身心診所,臺南市中西區府前路1段194號1樓,中西區,臺南市,70046,06-2218003,
安芯診所,臺南市麻豆區民權路43-3號1樓,麻豆區,臺南市,72142,06-5727629,
心田診所,臺南市歸仁區民權南路23號1樓,歸仁區,臺南市,71148,06-3306768,
林忠義診所,臺南市東區崇信街138號1樓,東區,臺南市,70156,06-3310686,
第一聯合診所,臺南市北區勝利路421號,北區,臺南市,70456,06-2350116,
心悠活診所,臺南市北區裕民里金華路5段14號1樓,北區,臺南市,70458,06-2236766,
明澤欣心診所,臺南市永康區埔圍里永大路3段411號1、2樓,永康區,臺南市,71076,06-2012866,
林俞仲身心精神科診所,臺南市永康區西橋里中山南路31號1、2樓,永康區,臺南市,71075,06-3036006,
高雄市衛生局,高雄市苓雅區凱旋二路132號,苓雅區,高雄市,80276,07-7134000#936,
高雄市社區心衛中心-大順分部,高雄市三民區大順二路468號8樓之2,三民區,高雄市,80787,07-3874649~50,
高雄市立聯合醫院,高雄市鼓山區中華一路976號,鼓山區,高雄市,80457,07-5552565,
行政院國軍退除役官兵輔導委員會高雄榮民總醫院,高雄市左營區大中一路386號,左營區,高雄市,81362,07-3422121,
國軍高雄總醫院左營分院附設民眾診療服務處,高雄市左營區軍校路553號,左營區,高雄市,81342,07-5817121,
健仁醫院,高雄市楠梓區楠陽路136號,楠梓區,高雄市,81160,07-3517166,
財團法人私立高雄醫學大學附設中和紀念醫院,高雄市三民區十全一路100號,三民區,高雄市,80708,07-3121101,
靜和醫院,高雄市新興區民族二路178號,新興區,高雄市,80047,07-2229612,
高雄市立大同醫院(委託財團法人私立高雄醫學大學附設中和紀念醫院經營),高雄市前金區中華三路68號,前金區,高雄市,80145,07-2911361,
高雄市立凱旋醫院,高雄市苓雅區凱旋二路130號,苓雅區,高雄市,80276,07-7513171,
阮綜合醫療社團法人阮綜合醫院,高雄市苓雅區成功一路162號,苓雅區,高雄市,80249,07-3351121~31,
高雄市立民生醫院,高雄市苓雅區凱旋二路134號,苓雅區,高雄市,80276,07-7511131,
國軍高雄總醫院附設民眾診療服務處,高雄市苓雅區建軍路5號,苓雅區,高雄市,80285,07-7496751,
財團法人天主教聖功醫院,高雄市苓雅區建國一路352號,苓雅區,高雄市,80288,07-2238153,
高雄市立旗津醫院,高雄市旗津區廟前路1-1號,旗津區,高雄市,80541,07-5712891,
高雄市立小港醫院(委託財團法人私立高雄醫學大學經營),高雄市小港區山明路482號,小港區,高雄市,81267,07-8036783,
樂安醫院,高雄市岡山區通校路300號,岡山區,高雄市,82048,07-6256791,
國軍高雄總醫院岡山分院附設民眾診療服務處,高雄市岡山區大義二路1號,岡山區,高雄市,82050,07-6250919,
衛生福利部旗山醫院,高雄市旗山區中學路60號,旗山區,高雄市,84247,07-6613811,
建佑醫院,高雄市林園區東林西路360號,林園區,高雄市,83250,07-6437901,
財團法人台灣省私立高雄仁愛之家附設慈惠醫院,高雄市大寮區鳳屏一路509號,大寮區,高雄市,83142,07-7030315,
長庚醫療財團法人高雄長庚紀念醫院,高雄市鳥松區大埤路123號,鳥松區,高雄市,83301,07-7317123,
靜和醫院燕巢分院,高雄市燕巢區深水村深水路3-20號,燕巢區,高雄市,82444,07-6156555,
義大醫療財團法人義大醫院,高雄市燕巢區角宿村義大路1號,燕巢區,高雄市,82445,07-6150011,
信元內科精神科聯合診所,高雄市鳳山區建國路2段158號,鳳山區,高雄市,83041,07-7415955,
文榮光診所,高雄市鳳山區建國路3段57號,鳳山區,高雄市,83044,07-7452103,
快樂心靈診所,高雄市鳳山區五甲二路315號,鳳山區,高雄市,83092,07-7686789,
張簡精神科診所,高雄市鳳山區五甲一路600號,鳳山區,高雄市,83072,07 7632048,
文鳳診所,高雄市鳳山區文鳳路5號,鳳山區,高雄市,83048,07-7807333,
欣明精神科診所,高雄市旗山區旗南一路134-10號,旗山區,高雄市,84242,07-6627802,
樂群診所,高雄市鼓山區中華一路970號,鼓山區,高雄市,80457,07-5555596,
元和雅聯合診所,高雄市鼓山區中華一路347號,鼓山區,高雄市,80455,07-5550056,
李全忠診所,高雄市左營區自由三路528號,左營區,高雄市,81364,07-3496555,
陽光診所,高雄市左營區自由三路176號,左營區,高雄市,81363,07-3412598,
耕心療癒診所,高雄市左營區曾子路332號,左營區,高雄市,81364,07-3592011,
心方診所,高雄市左營區華夏路729號1樓,左營區,高雄市,81368,07-3450697,
河堤診所,高雄市左營區裕誠路190號,左營區,高雄市,81366,07-5575658,
心晴診所,高雄市左營區民族一路1032號,左營區,高雄市,81362,07-3463099,
哲民診所,高雄市左營區明誠二路500號,左營區,高雄市,81359,07-5570500,
心樂診所,高雄市左營區榮佑路9號1樓、夾層,左營區,高雄市,81362,07-3421968,
膚康診所,高雄市左營區自由三路266之5號1樓,左營區,高雄市,81364,07-3502209,
郭玉柱診所,高雄市楠梓區軍校路838號,楠梓區,高雄市,81143,07-3661166,
祈福診所,高雄市楠梓區楠梓新路271號,楠梓區,高雄市,81166,07-3531117,
拉法診所,高雄市三民區陽明路105號,三民區,高雄市,80773,07-3854591,
正中診所,高雄市三民區正忠路18號,三民區,高雄市,80782,07-3809900,
茂德診所,高雄市三民區自由一路14號,三民區,高雄市,80754,07-3122238,
覺民診所,高雄市三民區澄清路387號,三民區,高雄市,80770,07-3386101,
劉精神科診所,高雄市三民區建國一路504號,三民區,高雄市,80760,07-2229450,
磐石診所,高雄市三民區明誠一路710號1樓,三民區,高雄市,80794,07-3100969,
舒心身心診所,高雄市三民區吉林街150號2樓,三民區,高雄市,80754,07-3116116,
開心診所,高雄市三民區敦煌路82號1樓,三民區,高雄市,80794,07-3929988,
文信診所,高雄市新興區南台路68-1號,新興區,高雄市,80054,07-2850119,
謝前亮診所,高雄市新興區六合路167號1樓,新興區,高雄市,80048,07-2259763,
高安診所,高雄市新興區中山一路59號,新興區,高雄市,80049,07-2727662,
柯偉恭診所,高雄市新興區民族二路102-9號,新興區,高雄市,80052,07-2261359,
青欣診所,高雄市新興區中正二路212號,新興區,高雄市,80047,07-2254800,
信恩診所,高雄市新興區六合一路90-1號,新興區,高雄市,80055,07-2384119,
喜洋洋心靈診所,高雄市新興區文橫二路169號2樓,新興區,高雄市,80044,07-2213924,
楊寬弘診所,高雄市苓雅區凱旋二路128號,苓雅區,高雄市,80276,07-7241299,
靜安神經精神內科診所,高雄市苓雅區大順三路197號,苓雅區,高雄市,80292,07-7519025,
家慈診所,高雄市苓雅區永康街118號,苓雅區,高雄市,80242,07-3333375,
展穎診所,高雄市苓雅區四維一路157號,苓雅區,高雄市,80275,07-7130822,
徐獨立診所,高雄市苓雅區武慶三路144號,苓雅區,高雄市,80273,07-7133284,
童春診所,高雄市苓雅區武慶三路98號,苓雅區,高雄市,80273,07-7210983,
琉璃光精神科診所,高雄市苓雅區四維一路296號,苓雅區,高雄市,80275,07-7160887,
楊明仁診所,高雄市苓雅區憲政路258-1號,苓雅區,高雄市,80293,07-2232223,
大和診所,高雄市苓雅區光華一路148之99號,苓雅區,高雄市,80253,07-2295666,
大福診所,高雄市前鎮區光華二路159號,前鎮區,高雄市,80654,07-3317601,
養全診所,高雄市前鎮區復興三路311號,前鎮區,高雄市,80654,07-3344006,
誼安診所,高雄市小港區康莊路150號,小港區,高雄市,81254,07-8069353,
國良診所,高雄市路竹區大社路27號,路竹區,高雄市,82143,07-6076686,
維心診所,高雄市岡山區岡山路314號,岡山區,高雄市,82049,07-6231829,
屏東縣衛生局,屏東縣屏東市自由路272號,屏東市,屏東縣,90054,08-7370002 ,
屏東縣社區心理衛生中心,屏東縣屏東市自由路272號,屏東市,屏東縣,90054,08-7370123,
國軍高雄總醫院附設屏東民眾診療服務處,屏東縣屏東市大湖路58巷22號,屏東市,屏東縣,90092,08-7560756,
寶建醫療社團法人寶建醫院,屏東縣屏東市中山路123號,屏東市,屏東縣,90064,08-7665995,
衛生福利部屏東醫院,屏東縣屏東市自由路270號,屏東市,屏東縣,90054,08-7363011,
屏基醫療財團法人屏東基督教醫院,屏東縣屏東市大連路60號,屏東市,屏東縣,90059,08-7363026,
輔英科技大學附設醫院,屏東縣東港鎮中山路5號,東港鎮,屏東縣,92847,08-8323146,
安泰醫療社團法人安泰醫院,屏東縣東港鎮中正路1段210號,東港鎮,屏東縣,92842,08-8329966,
屏安醫院,屏東縣長治鄉信義路129號,長治鄉,屏東縣,90844,08-7622670,
高雄榮民總醫院屏東分院,屏東縣內埔鄉龍潭村昭勝路安平1巷1號,內埔鄉,屏東縣,91245,08-7704115,
佑青醫療財團法人佑青醫院,屏東縣內埔鄉建興村建興路218巷19號,內埔鄉,屏東縣,91246,08-7705115,
迦樂醫療財團法人迦樂醫院,屏東縣新埤鄉箕湖村進化路12之200號,新埤鄉,屏東縣,92541,08-7981511,
屏安醫院附設門診部,屏東縣屏東市瑞光路2段250號之1,屏東市,屏東縣,92541,08-7378888,
恆基醫療財團法人恆春基督教醫院,屏東縣恆春鎮恆西路21號,恆春鎮,屏東縣,94642,08-8892293,
衛生福利部恆春旅遊醫院,屏東縣恆春鎮恆南路188號,恆春鎮,屏東縣,94641,08-8892704,
宏仁內科神經科精神科診所,屏東縣潮州鎮育英路95號,潮州鎮,屏東縣,92045,08-7882121,
興安診所,屏東縣屏東市自由路463號,屏東市,屏東縣,90074,08-7346666,
寬心診所,屏東縣屏東市武廟里中山路40號,屏東市,屏東縣,90075,08-7333555,
泰祥診所,屏東縣潮州鎮新生路111號3樓,潮州鎮,屏東縣,92046,08-7881777,
澎湖縣衛生局,澎湖縣馬公市中正路115號,馬公市,澎湖縣,88041,06-9272162#232、228,
澎湖縣社區心理衛生中心,澎湖縣馬公市中正路115號,馬公市,澎湖縣,88041,"06-9272162#309
06-9269051",
行政院衛生署澎湖醫院,澎湖縣馬公市中正路10號,馬公市,澎湖縣,88041,06-9261151#50822,
三軍總醫院澎湖分院附設民眾診療服務處,澎湖縣馬公市前寮里90號,馬公市,澎湖縣,88056,06-9211116,
陽明診所,澎湖縣馬公市陽明路37號,馬公市,澎湖縣,88045,06-9266633,
花蓮縣衛生局,花蓮縣花蓮市新興路200號,花蓮市,花蓮縣,97058,03-8233251,
花蓮縣社區心理衛生中心,花蓮縣花蓮市林森路391號,花蓮市,花蓮縣,97050,03-8351885,
衛生福利部花蓮醫院,花蓮縣花蓮市中正路600號,花蓮市,花蓮縣,97061,03-8358141,
臺灣基督教門諾會醫療財團法人門諾醫院,花蓮縣花蓮市民權路44號,花蓮市,花蓮縣,97059,03-8241234,
佛教慈濟醫療財團法人花蓮慈濟醫院,花蓮縣花蓮市中央路3段707號,花蓮市,花蓮縣,97002,03-8561825,
行政院國軍退役官兵輔導委員會鳳林榮民醫院,花蓮縣鳳林鎮中正路1段2號,鳳林鎮,花蓮縣,97544,03-8763331,
佛教慈濟醫療財團法人玉里慈濟醫院,花蓮縣玉里鎮民權街1-1號,玉里鎮,花蓮縣,98141,03-8882718,
行政院國軍退除役官兵輔導委員會玉里榮民醫院,花蓮縣玉里鎮新興街91號,玉里鎮,花蓮縣,98142,03-8883141,
衛生福利部玉里醫院,花蓮縣玉里鎮中華路448號,玉里鎮,花蓮縣,98147,03-8886141,
國軍花蓮總醫院附設民眾診療服務處,花蓮縣新城鄉嘉里路163號,新城鄉,花蓮縣,97144,03-8263151,
臺灣基督教門諾會醫療財團法人門諾醫院壽豐分院,花蓮縣壽豐鄉共和村魚池52號,壽豐鄉,花蓮縣,97446,03-8664600,
同心診所,花蓮縣花蓮市富國路139號,花蓮市,花蓮縣,97068,03-8567803,
中山身心診所,花蓮縣花蓮市中山路541號,花蓮市,花蓮縣,97053,03-8315589,
臺東縣衛生局,臺東縣臺東市博愛路336號,臺東市,臺東縣,95043,089-331171,
臺東縣社區心理衛生中心,臺東縣臺東市博愛路336號,臺東市,臺東縣,95043,089-336575,
行政院國軍退除役官兵輔導委員會台東榮民醫院,臺東縣臺東市更生路1000號,臺東市,臺東縣,95050,089-222995,
東基醫療財團法人台東基督教醫院,臺東縣臺東市開封街350號,臺東市,臺東縣,95048,089-960888,
衛生福利部署臺東醫院,臺東縣臺東市五權街1號,臺東市,臺東縣,95043,089-324112,
馬偕紀念醫院臺東分院,臺東縣臺東市長沙街303巷1號,臺東市,臺東縣,95054,089-310150,
財團法人佛教慈濟綜合醫院關山分院,臺東縣關山鎮和平路125-5號,關山鎮,臺東縣,95655,089-814880,
楊國明身心科診所,臺東縣臺東市南京路145號,臺東市,臺東縣,95051,089-346379,
